{
  "type": "FeatureCollection",
  "features": [
    {
      "type": "Feature",
      "properties": {
        "norad_id": 34615,
        "name": "COSMOS 2251 DEB",
        "group": "cosmos-2251-debris",
        "lat": 28.000771687943903,
        "lon": 88.9982320924512,
        "alt_km": 806.8617145355965,
        "timestamp": "2025-12-22T22:44:21.373984+00:00",
        "meta_object_name": "COSMOS 2251 DEB",
        "meta_object_id": "1993-036WL",
        "meta_epoch": "2025-12-20T18:38:01.201920",
        "meta_mean_motion": 13.52204408,
        "meta_eccentricity": 0.0400621,
        "meta_inclination": 74.0047,
        "meta_ra_of_asc_node": 281.2515,
        "meta_arg_of_pericenter": 186.7825,
        "meta_mean_anomaly": 201.5832,
        "meta_ephemeris_type": 0,
        "meta_classification_type": "U",
        "meta_norad_cat_id": 34615,
        "meta_element_set_no": 999,
        "meta_rev_at_epoch": 82924,
        "meta_bstar": 5.7151311e-05,
        "meta_mean_motion_dot": 4.1e-07,
        "meta_mean_motion_ddot": 0,
        "tle_line1": "1 34615U 93036WL  25354.77640280  .00000041  00000+0  57151-4 0  9990",
        "tle_line2": "2 34615  74.0047 281.2515 0400621 186.7825 201.5832 13.52204408829242"
      },
      "geometry": {
        "type": "Point",
        "coordinates": [
          88.9982320924512,
          28.000771687943903
        ]
      }
    },
    {
      "type": "Feature",
      "properties": {
        "norad_id": 34619,
        "name": "COSMOS 2251 DEB",
        "group": "cosmos-2251-debris",
        "lat": -46.72272854870081,
        "lon": 18.01375317934874,
        "alt_km": 635.9104944215551,
        "timestamp": "2025-12-22T22:44:21.373995+00:00",
        "meta_object_name": "COSMOS 2251 DEB",
        "meta_object_id": "1993-036WQ",
        "meta_epoch": "2025-12-21T22:44:17.672928",
        "meta_mean_motion": 14.64666718,
        "meta_eccentricity": 0.00947682,
        "meta_inclination": 74.0432,
        "meta_ra_of_asc_node": 182.2451,
        "meta_arg_of_pericenter": 274.9952,
        "meta_mean_anomaly": 84.0404,
        "meta_ephemeris_type": 0,
        "meta_classification_type": "U",
        "meta_norad_cat_id": 34619,
        "meta_element_set_no": 999,
        "meta_rev_at_epoch": 89433,
        "meta_bstar": 0.00019444734,
        "meta_mean_motion_dot": 1.069e-05,
        "meta_mean_motion_ddot": 0,
        "tle_line1": "1 34619U 93036WQ  25355.94742677  .00001069  00000+0  19445-3 0  9991",
        "tle_line2": "2 34619  74.0432 182.2451 0094768 274.9952  84.0404 14.64666718894336"
      },
      "geometry": {
        "type": "Point",
        "coordinates": [
          18.01375317934874,
          -46.72272854870081
        ]
      }
    },
    {
      "type": "Feature",
      "properties": {
        "norad_id": 34620,
        "name": "COSMOS 2251 DEB",
        "group": "cosmos-2251-debris",
        "lat": -71.16464723360431,
        "lon": 77.37448929514721,
        "alt_km": 683.7494014282292,
        "timestamp": "2025-12-22T22:44:21.374005+00:00",
        "meta_object_name": "COSMOS 2251 DEB",
        "meta_object_id": "1993-036WR",
        "meta_epoch": "2025-12-22T00:00:17.871840",
        "meta_mean_motion": 14.49231042,
        "meta_eccentricity": 0.00797451,
        "meta_inclination": 74.0502,
        "meta_ra_of_asc_node": 202.1798,
        "meta_arg_of_pericenter": 236.5192,
        "meta_mean_anomaly": 122.8329,
        "meta_ephemeris_type": 0,
        "meta_classification_type": "U",
        "meta_norad_cat_id": 34620,
        "meta_element_set_no": 999,
        "meta_rev_at_epoch": 86961,
        "meta_bstar": 0.0020088498,
        "meta_mean_motion_dot": 7.951e-05,
        "meta_mean_motion_ddot": 0,
        "tle_line1": "1 34620U 93036WR  25356.00020685  .00007951  00000+0  20088-2 0  9999",
        "tle_line2": "2 34620  74.0502 202.1798 0079745 236.5192 122.8329 14.49231042869611"
      },
      "geometry": {
        "type": "Point",
        "coordinates": [
          77.37448929514721,
          -71.16464723360431
        ]
      }
    },
    {
      "type": "Feature",
      "properties": {
        "norad_id": 34622,
        "name": "COSMOS 2251 DEB",
        "group": "cosmos-2251-debris",
        "lat": -18.46478297406816,
        "lon": -76.7856568598466,
        "alt_km": 756.1298064153552,
        "timestamp": "2025-12-22T22:44:21.374015+00:00",
        "meta_object_name": "COSMOS 2251 DEB",
        "meta_object_id": "1993-036WT",
        "meta_epoch": "2025-12-21T19:57:25.914816",
        "meta_mean_motion": 14.22079375,
        "meta_eccentricity": 0.01047903,
        "meta_inclination": 74.0423,
        "meta_ra_of_asc_node": 290.6983,
        "meta_arg_of_pericenter": 11.0154,
        "meta_mean_anomaly": 19.7472,
        "meta_ephemeris_type": 0,
        "meta_classification_type": "U",
        "meta_norad_cat_id": 34622,
        "meta_element_set_no": 999,
        "meta_rev_at_epoch": 86589,
        "meta_bstar": 0.00067913671,
        "meta_mean_motion_dot": 1.564e-05,
        "meta_mean_motion_ddot": 0,
        "tle_line1": "1 34622U 93036WT  25355.83154994  .00001564  00000+0  67914-3 0  9996",
        "tle_line2": "2 34622  74.0423 290.6983 0104790  11.0154  19.7472 14.22079375865895"
      },
      "geometry": {
        "type": "Point",
        "coordinates": [
          -76.7856568598466,
          -18.46478297406816
        ]
      }
    },
    {
      "type": "Feature",
      "properties": {
        "norad_id": 34626,
        "name": "COSMOS 2251 DEB",
        "group": "cosmos-2251-debris",
        "lat": -27.69038966328232,
        "lon": 132.6783820749923,
        "alt_km": 678.1525969491913,
        "timestamp": "2025-12-22T22:44:21.374025+00:00",
        "meta_object_name": "COSMOS 2251 DEB",
        "meta_object_id": "1993-036WX",
        "meta_epoch": "2025-12-22T07:48:23.110272",
        "meta_mean_motion": 14.72306442,
        "meta_eccentricity": 0.00270278,
        "meta_inclination": 74.0485,
        "meta_ra_of_asc_node": 305.2548,
        "meta_arg_of_pericenter": 30.7166,
        "meta_mean_anomaly": 121.5791,
        "meta_ephemeris_type": 0,
        "meta_classification_type": "U",
        "meta_norad_cat_id": 34626,
        "meta_element_set_no": 999,
        "meta_rev_at_epoch": 89285,
        "meta_bstar": 0.0010495518,
        "meta_mean_motion_dot": 6.647e-05,
        "meta_mean_motion_ddot": 0,
        "tle_line1": "1 34626U 93036WX  25356.32526748  .00006647  00000+0  10496-2 0  9994",
        "tle_line2": "2 34626  74.0485 305.2548 0027027  30.7166 121.5791 14.72306442892850"
      },
      "geometry": {
        "type": "Point",
        "coordinates": [
          132.6783820749923,
          -27.69038966328232
        ]
      }
    },
    {
      "type": "Feature",
      "properties": {
        "norad_id": 34634,
        "name": "COSMOS 2251 DEB",
        "group": "cosmos-2251-debris",
        "lat": 50.74529068503132,
        "lon": 175.16334346936506,
        "alt_km": 671.3239368601471,
        "timestamp": "2025-12-22T22:44:21.374036+00:00",
        "meta_object_name": "COSMOS 2251 DEB",
        "meta_object_id": "1993-036XF",
        "meta_epoch": "2025-12-22T06:15:27.205920",
        "meta_mean_motion": 14.55682831,
        "meta_eccentricity": 0.00437302,
        "meta_inclination": 74.0514,
        "meta_ra_of_asc_node": 16.9468,
        "meta_arg_of_pericenter": 121.435,
        "meta_mean_anomaly": 7.451,
        "meta_ephemeris_type": 0,
        "meta_classification_type": "U",
        "meta_norad_cat_id": 34634,
        "meta_element_set_no": 999,
        "meta_rev_at_epoch": 88920,
        "meta_bstar": 0.00026704885,
        "meta_mean_motion_dot": 1.153e-05,
        "meta_mean_motion_ddot": 0,
        "tle_line1": "1 34634U 93036XF  25356.26073155  .00001153  00000+0  26705-3 0  9993",
        "tle_line2": "2 34634  74.0514  16.9468 0043730 121.4350   7.4510 14.55682831889207"
      },
      "geometry": {
        "type": "Point",
        "coordinates": [
          175.16334346936506,
          50.74529068503132
        ]
      }
    },
    {
      "type": "Feature",
      "properties": {
        "norad_id": 34635,
        "name": "COSMOS 2251 DEB",
        "group": "cosmos-2251-debris",
        "lat": 73.83362623932156,
        "lon": 150.28787498595545,
        "alt_km": 640.8674832355455,
        "timestamp": "2025-12-22T22:44:21.374046+00:00",
        "meta_object_name": "COSMOS 2251 DEB",
        "meta_object_id": "1993-036XG",
        "meta_epoch": "2025-12-22T08:10:22.952352",
        "meta_mean_motion": 14.68377642,
        "meta_eccentricity": 0.00277938,
        "meta_inclination": 74.0453,
        "meta_ra_of_asc_node": 52.1607,
        "meta_arg_of_pericenter": 117.5476,
        "meta_mean_anomaly": 8.167,
        "meta_ephemeris_type": 0,
        "meta_classification_type": "U",
        "meta_norad_cat_id": 34635,
        "meta_element_set_no": 999,
        "meta_rev_at_epoch": 73360,
        "meta_bstar": 0.0011046218,
        "meta_mean_motion_dot": 6.397e-05,
        "meta_mean_motion_ddot": 0,
        "tle_line1": "1 34635U 93036XG  25356.34054343  .00006397  00000+0  11046-2 0  9997",
        "tle_line2": "2 34635  74.0453  52.1607 0027793 117.5476   8.1670 14.68377642733605"
      },
      "geometry": {
        "type": "Point",
        "coordinates": [
          150.28787498595545,
          73.83362623932156
        ]
      }
    }
  ]
}